NORAD_CAT_ID,OBJECT_NAME,OBJECT_TYPE,EPOCH,MEAN_MOTION,ECCENTRICITY,INCLINATION,RA_OF_ASC_NODE,ARG_OF_PERICENTER,MEAN_ANOMALY,BSTAR,MEAN_MOTION_DOT,MEAN_MOTION_DDOT,TLE_LINE0,TLE_LINE1,TLE_LINE2,SEMIMAJOR_AXIS,PERIOD,APOGEE,PERIGEE,DECAYED
55745.0,STARLINK-5565,PAYLOAD,2024-06-13 09:13:38,14.99141926,0.0002928,70.0005,43.9184,268.1072,91.9753,-1.3616e-05,-2.6e-06,0.0,0 STARLINK-5565,1 55745U 23028E   24165.38447318 -.00000260  00000-0 -13616-4 0  9998,2 55745  70.0005  43.9184 0002928 268.1072  91.9753 14.99141926 71026,6947.683,96.055,571.582,567.514,0.0
55745.0,STARLINK-5565,PAYLOAD,2024-06-13 22:02:17,14.99141116,0.000287,70.0004,42.5704,262.6347,97.4486,6.7229e-05,7.26e-06,0.0,0 STARLINK-5565,1 55745U 23028E   24165.91826253  .00000726  00000-0  67229-4 0  9990,2 55745  70.0004  42.5704 0002870 262.6347  97.4486 14.99141116 71102,6947.686,96.055,571.545,567.557,0.0
55745.0,STARLINK-5565,PAYLOAD,2024-06-14 09:14:52,14.99142535,0.0003152,69.9999,41.3901,267.6143,92.4656,7.5588e-06,-2e-08,0.0,0 STARLINK-5565,1 55745U 23028E   24166.38532988 -.00000002  00000-0  75588-5 0  9997,2 55745  69.9999  41.3901 0003152 267.6143  92.4656 14.99142535 71178,6947.681,96.055,571.736,567.356,0.0
55745.0,STARLINK-5565,PAYLOAD,2024-06-14 20:27:27,14.99136803,0.000311,70.0,40.211,270.4635,89.6168,3.9646e-05,3.89e-06,0.0,0 STARLINK-5565,1 55745U 23028E   24166.85240146  .00000389  00000-0  39646-4 0  9992,2 55745  70.0000  40.2110 0003110 270.4635  89.6168 14.99136803 71241,6947.699,96.055,571.725,567.403,0.0
55745.0,STARLINK-5565,PAYLOAD,2024-06-15 09:16:07,14.99138833,0.0003074,70.0003,38.8638,269.0016,91.0791,3.6309e-05,3.49e-06,0.0,0 STARLINK-5565,1 55745U 23028E   24167.38619225  .00000349  00000-0  36309-4 0  9998,2 55745  70.0003  38.8638 0003074 269.0016  91.0791 14.99138833 71321,6947.693,96.055,571.693,567.422,0.0
55745.0,STARLINK-5565,PAYLOAD,2024-06-15 22:04:46,14.99142164,0.0003101,70.0,37.5162,270.833,89.2474,6.4202e-06,-1.5e-07,0.0,0 STARLINK-5565,1 55745U 23028E   24167.91998256 -.00000015  00000-0  64202-5 0  9996,2 55745  70.0000  37.5162 0003101 270.8330  89.2474 14.99142164 71404,6947.682,96.055,571.702,567.393,0.0
55745.0,STARLINK-5565,PAYLOAD,2024-06-16 14:05:36,14.9913868,0.0003044,70.0001,35.8316,271.0766,89.0045,4.6312e-05,4.71e-06,0.0,0 STARLINK-5565,1 55745U 23028E   24168.58722304  .00000471  00000-0  46312-4 0  9995,2 55745  70.0001  35.8316 0003044 271.0766  89.0045 14.99138680 71500,6947.693,96.055,571.673,567.443,0.0
55745.0,STARLINK-5565,PAYLOAD,2024-06-16 22:06:00,14.99138902,0.0003054,70.0,34.9895,270.6215,89.4595,3.8454e-05,3.75e-06,0.0,0 STARLINK-5565,1 55745U 23028E   24168.92084316  .00000375  00000-0  38454-4 0  9998,2 55745  70.0000  34.9895 0003054 270.6215  89.4595 14.99138902 71552,6947.693,96.055,571.679,567.436,0.0
55745.0,STARLINK-5565,PAYLOAD,2024-06-17 22:07:15,14.99137882,0.0003028,70.0,32.4632,269.8463,90.2349,1.378e-05,7.4e-07,0.0,0 STARLINK-5565,1 55745U 23028E   24169.92170502  .00000074  00000-0  13780-4 0  9993,2 55745  70.0000  32.4632 0003028 269.8463  90.2349 14.99137882 71700,6947.696,96.055,571.664,567.457,0.0
55745.0,STARLINK-5565,PAYLOAD,2024-06-18 01:19:25,14.99138144,0.0003024,70.0,32.1263,269.8845,90.1968,1.6155e-05,1.03e-06,0.0,0 STARLINK-5565,1 55745U 23028E   24170.05515287  .00000103  00000-0  16155-4 0  9994,2 55745  70.0000  32.1263 0003024 269.8845  90.1968 14.99138144 71727,6947.695,96.055,571.661,567.459,0.0
55745.0,STARLINK-5565,PAYLOAD,2024-06-18 07:43:44,14.99140088,0.0003025,70.0,31.4524,270.1722,89.9091,3.2425e-05,3.01e-06,0.0,0 STARLINK-5565,1 55745U 23028E   24170.32204715  .00000301  00000-0  32425-4 0  9993,2 55745  70.0000  31.4524 0003025 270.1722  89.9091 14.99140088 71766,6947.689,96.055,571.656,567.452,0.0
55745.0,STARLINK-5565,PAYLOAD,2024-06-18 20:32:24,14.99142558,0.0003083,69.9998,30.1046,270.271,89.8096,7.9643e-05,8.77e-06,0.0,0 STARLINK-5565,1 55745U 23028E   24170.85583535  .00000877  00000-0  79643-4 0  9992,2 55745  69.9998  30.1046 0003083 270.2710  89.8096 14.99142558 71843,6947.681,96.055,571.688,567.404,0.0
55745.0,STARLINK-5565,PAYLOAD,2024-06-18 23:44:34,14.99142885,0.0003077,69.9998,29.7677,270.3761,89.7046,8.0881e-05,8.92e-06,0.0,0 STARLINK-5565,1 55745U 23028E   24170.98928286  .00000892  00000-0  80881-4 0  9995,2 55745  69.9998  29.7677 0003077 270.3761  89.7046 14.99142885 71866,6947.68,96.055,571.683,567.407,0.0
55745.0,STARLINK-5565,PAYLOAD,2024-06-19 14:09:19,14.99136246,0.0002993,69.9999,28.2517,270.1277,89.954,-1.8084e-07,-9.6e-07,0.0,0 STARLINK-5565,1 55745U 23028E   24171.58980496 -.00000096  00000-0 -18084-6 0  9999,2 55745  69.9999  28.2517 0002993 270.1277  89.9540 14.99136246 71955,6947.701,96.055,571.645,567.486,0.0
55745.0,STARLINK-5565,PAYLOAD,2024-06-19 20:33:38,14.99137505,0.0003,70.0001,27.578,270.1688,89.9127,1.2182e-05,5.5e-07,0.0,0 STARLINK-5565,1 55745U 23028E   24171.85669976  .00000055  00000-0  12182-4 0  9990,2 55745  70.0001  27.5780 0003000 270.1688  89.9127 14.99137505 71996,6947.697,96.055,571.646,567.478,0.0
55745.0,STARLINK-5565,PAYLOAD,2024-06-19 22:09:43,14.99137926,0.0002998,70.0001,27.4095,270.1553,89.9263,1.6059e-05,1.02e-06,0.0,0 STARLINK-5565,1 55745U 23028E   24171.92342339  .00000102  00000-0  16059-4 0  9999,2 55745  70.0001  27.4095 0002998 270.1553  89.9263 14.99137926 72001,6947.696,96.055,571.643,567.478,0.0
55745.0,STARLINK-5565,PAYLOAD,2024-06-20 14:10:31,14.99159174,0.0003166,70.0003,25.7253,269.0067,91.0729,0.00015599,1.808e-05,0.0,0 STARLINK-5565,1 55745U 23028E   24172.59064097  .00001808  00000-0  15599-3 0  9996,2 55745  70.0003  25.7253 0003166 269.0067  91.0729 14.99159174 72106,6947.63,96.054,571.695,567.295,0.0
55745.0,STARLINK-5565,PAYLOAD,2024-06-20 22:10:55,14.99167503,0.0003036,69.9998,24.8821,268.5423,91.5388,0.00023625,2.788e-05,0.0,0 STARLINK-5565,1 55745U 23028E   24172.92424853  .00002788  00000-0  23625-3 0  9990,2 55745  69.9998  24.8821 0003036 268.5423  91.5388 14.99167503 72159,6947.604,96.053,571.578,567.36,0.0
55745.0,STARLINK-5565,PAYLOAD,2024-06-21 14:11:45,14.99143722,0.000251,70.0025,23.1975,268.6194,91.4678,0.00013981,1.61e-05,0.0,0 STARLINK-5565,1 55745U 23028E   24173.59150098  .00001610  00000-0  13981-3 0  9998,2 55745  70.0025  23.1975 0002510 268.6194  91.4678 14.99143722 72256,6947.678,96.055,571.287,567.799,0.0
55745.0,STARLINK-5565,PAYLOAD,2024-06-21 20:36:06,14.99138802,0.0003074,70.0,22.5262,261.6849,98.3962,-3.1689e-05,-4.8e-06,0.0,0 STARLINK-5565,1 55745U 23028E   24173.85840301 -.00000480  00000-0 -31689-4 0  9992,2 55745  70.0000  22.5262 0003074 261.6849  98.3962 14.99138802 72296,6947.693,96.055,571.694,567.422,0.0
55745.0,STARLINK-5565,PAYLOAD,2024-06-21 22:12:10,14.99138378,0.0003215,69.9995,22.3567,263.5091,96.5702,-4.3233e-05,-6.2e-06,0.0,0 STARLINK-5565,1 55745U 23028E   24173.92512730 -.00000620  00000-0 -43233-4 0  9996,2 55745  69.9995  22.3567 0003215 263.5091  96.5702 14.99138378 72301,6947.694,96.055,571.793,567.325,0.0
55745.0,STARLINK-5565,PAYLOAD,2024-06-21 23:48:16,14.99132761,0.0002824,70.0006,22.1863,275.6617,84.422,-0.00015109,-1.934e-05,0.0,0 STARLINK-5565,1 55745U 23028E   24173.99185947 -.00001934  00000-0 -15109-3 0  9998,2 55745  70.0006  22.1863 0002824 275.6617  84.4220 14.99132761 72319,6947.712,96.056,571.539,567.614,0.0
55745.0,STARLINK-5565,PAYLOAD,2024-06-22 14:13:02,14.99129455,0.0002794,70.0006,20.6703,275.4406,84.6435,-0.00040512,-5.025e-05,0.0,0 STARLINK-5565,1 55745U 23028E   24174.59238764 -.00005025  00000-0 -40512-3 0  9992,2 55745  70.0006  20.6703 0002794 275.4406  84.6435 14.99129455 72401,6947.722,96.056,571.528,567.646,0.0
55745.0,STARLINK-5565,PAYLOAD,2024-06-22 20:37:22,14.99125916,0.0002925,70.0001,19.9973,270.3385,89.744,-0.00040972,-5.081e-05,0.0,0 STARLINK-5565,1 55745U 23028E   24174.85928688 -.00005081  00000-0 -40972-3 0  9994,2 55745  70.0001  19.9973 0002925 270.3385  89.7440 14.99125916 72446,6947.733,96.056,571.63,567.565,0.0
55745.0,STARLINK-5565,PAYLOAD,2024-06-22 22:13:27,14.99125637,0.0002907,70.0002,19.8289,270.55,89.5326,-0.00040341,-5.004e-05,0.0,0 STARLINK-5565,1 55745U 23028E   24174.92601139 -.00005004  00000-0 -40341-3 0  9996,2 55745  70.0002  19.8289 0002907 270.5500  89.5326 14.99125637 72459,6947.734,96.056,571.618,567.579,0.0
55745.0,STARLINK-5565,PAYLOAD,2024-06-23 14:14:16,14.99121107,0.0003805,69.9981,18.1434,279.1025,80.9704,4.1187e-05,4.08e-06,0.0,0 STARLINK-5565,1 55745U 23028E   24175.59324888  .00000408  00000-0  41187-4 0  9994,2 55745  69.9981  18.1434 0003805 279.1025  80.9704 14.99121107 72555,6947.748,96.056,572.256,566.969,0.0
55745.0,STARLINK-5565,PAYLOAD,2024-06-23 20:38:36,14.99124283,0.0003403,69.999,17.4694,279.4188,80.6587,9.7955e-05,1.1e-05,0.0,0 STARLINK-5565,1 55745U 23028E   24175.86014462  .00001100  00000-0  97955-4 0  9992,2 55745  69.9990  17.4694 0003403 279.4188  80.6587 14.99124283 72590,6947.738,96.056,571.967,567.238,0.0
55745.0,STARLINK-5565,PAYLOAD,2024-06-23 22:14:41,14.99125561,0.0003317,69.9993,17.3015,278.3036,81.7747,0.00011358,1.29e-05,0.0,0 STARLINK-5565,1 55745U 23028E   24175.92686817  .00001290  00000-0  11358-3 0  9990,2 55745  69.9993  17.3015 0003317 278.3036  81.7747 14.99125561 72605,6947.734,96.056,571.903,567.294,0.0
55745.0,STARLINK-5565,PAYLOAD,2024-06-24 14:15:31,14.99121484,0.0003422,69.999,15.6172,274.3042,85.7726,0.00021507,2.527e-05,0.0,0 STARLINK-5565,1 55745U 23028E   24176.59411576  .00002527  00000-0  21507-3 0  9993,2 55745  69.9990  15.6172 0003422 274.3042  85.7726 14.99121484 72709,6947.746,96.056,571.989,567.234,0.0
55745.0,STARLINK-5565,PAYLOAD,2024-06-24 20:39:51,14.99126022,0.000332,69.9994,14.9432,277.6213,82.457,0.0002659,3.147e-05,0.0,0 STARLINK-5565,1 55745U 23028E   24176.86101143  .00003147  00000-0  26590-3 0  9995,2 55745  69.9994  14.9432 0003320 277.6213  82.4570 14.99126022 72745,6947.732,96.056,571.904,567.291,0.0
